{
    "links": {
        "self": "http://www.neowsapp.com/rest/v1/neo/3547610?api_key=iIulBulltgU6a56xZRHN4H3l9WmuAYTsLGpBGhQ2"
    },
    "id": "3547610",
    "neo_reference_id": "3547610",
    "name": "(2010 SJ13)",
    "designation": "2010 SJ13",
    "nasa_jpl_url": "http://ssd.jpl.nasa.gov/sbdb.cgi?sstr=3547610",
    "absolute_magnitude_h": 21.0,
    "estimated_diameter": {
        "kilometers": {
            "estimated_diameter_min": 0.1677084622,
            "estimated_diameter_max": 0.3750075218
        },
        "meters": {
            "estimated_diameter_min": 167.7084621628,
            "estimated_diameter_max": 375.0075217981
        },
        "miles": {
            "estimated_diameter_min": 0.1042091748,
            "estimated_diameter_max": 0.2330187988
        },
        "feet": {
            "estimated_diameter_min": 550.2246310023,
            "estimated_diameter_max": 1230.3396778159
        }
    },
    "is_potentially_hazardous_asteroid": false,
    "close_approach_data": [
        {
            "close_approach_date": "2010-10-01",
            "close_approach_date_full": "2010-Oct-01 18:36",
            "epoch_date_close_approach": 1285958160000,
            "relative_velocity": {
                "kilometers_per_second": "16.1377227257",
                "kilometers_per_hour": "58095.80181247",
                "miles_per_hour": "36098.4719650872"
            },
            "miss_distance": {
                "astronomical": "0.1075360668",
                "lunar": "41.8315299852",
                "kilometers": "16087166.541457716",
                "miles": "9996101.7634638408"
            },
            "orbiting_body": "Earth"
        }
    ],
    "orbital_data": {
        "orbit_id": "9",
        "orbit_determination_date": "2020-07-21 06:56:29",
        "first_observation_date": "2010-09-09",
        "last_observation_date": "2010-09-29",
        "data_arc_in_days": 20,
        "observations_used": 48,
        "orbit_uncertainty": "9",
        "minimum_orbit_intersection": ".107317",
        "jupiter_tisserand_invariant": "3.978",
        "epoch_osculation": "2455452.5",
        "eccentricity": ".593092108275017",
        "semi_major_axis": "1.696744921251233",
        "inclination": "7.683108482250996",
        "ascending_node_longitude": "239.7335106096287",
        "orbital_period": "807.2782723805203",
        "perihelion_distance": ".6904188987014114",
        "perihelion_argument": "205.6050161791501",
        "aphelion_distance": "2.703070943801054",
        "perihelion_time": "2455517.370070039044",
        "mean_anomaly": "331.0716539599272",
        "mean_motion": ".4459428827911148",
        "equinox": "J2000",
        "orbit_class": {
            "orbit_class_type": "APO",
            "orbit_class_description": "Near-Earth asteroid orbits which cross the Earth’s orbit similar to that of 1862 Apollo",
            "orbit_class_range": "a (semi-major axis) > 1.0 AU; q (perihelion) < 1.017 AU"
        }
    },
    "is_sentry_object": false
}